{
  "type": "FeatureCollection",
  "features": [
    {
      "type": "Feature",
      "properties": {
        "norad_id": 32376,
        "name": "COSMO-SKYMED 2",
        "group": "resource",
        "lat": -5.036601609297384,
        "lon": -14.638823498099349,
        "alt_km": 626.3551247416563,
        "timestamp": "2025-12-10T16:57:11.291296+00:00",
        "meta_object_name": "COSMO-SKYMED 2",
        "meta_object_id": "2007-059A",
        "meta_epoch": "2025-12-10T12:52:51.202272",
        "meta_mean_motion": 14.82162097,
        "meta_eccentricity": 0.0001528,
        "meta_inclination": 97.8812,
        "meta_ra_of_asc_node": 165.8936,
        "meta_arg_of_pericenter": 85.2347,
        "meta_mean_anomaly": 274.904,
        "meta_ephemeris_type": 0,
        "meta_classification_type": "U",
        "meta_norad_cat_id": 32376,
        "meta_element_set_no": 999,
        "meta_rev_at_epoch": 97405,
        "meta_bstar": 0.00012461,
        "meta_mean_motion_dot": 9.4e-06,
        "meta_mean_motion_ddot": 0,
        "tle_line1": "1 32376U 07059A   25344.53670373  .00000940  00000+0  12461-3 0  9993",
        "tle_line2": "2 32376  97.8812 165.8936 0001528  85.2347 274.9040 14.82162097974052"
      },
      "geometry": {
        "type": "Point",
        "coordinates": [
          -14.638823498099349,
          -5.036601609297384
        ]
      }
    },
    {
      "type": "Feature",
      "properties": {
        "norad_id": 32382,
        "name": "RADARSAT-2",
        "group": "resource",
        "lat": 24.399296292872883,
        "lon": 173.25224375274917,
        "alt_km": 790.8245841253283,
        "timestamp": "2025-12-10T16:57:11.291306+00:00",
        "meta_object_name": "RADARSAT-2",
        "meta_object_id": "2007-061A",
        "meta_epoch": "2025-12-10T11:11:30.903360",
        "meta_mean_motion": 14.29981365,
        "meta_eccentricity": 0.0001125,
        "meta_inclination": 98.5796,
        "meta_ra_of_asc_node": 349.089,
        "meta_arg_of_pericenter": 86.7362,
        "meta_mean_anomaly": 273.3949,
        "meta_ephemeris_type": 0,
        "meta_classification_type": "U",
        "meta_norad_cat_id": 32382,
        "meta_element_set_no": 999,
        "meta_rev_at_epoch": 93898,
        "meta_bstar": 7.8926e-05,
        "meta_mean_motion_dot": 1.6e-06,
        "meta_mean_motion_ddot": 0,
        "tle_line1": "1 32382U 07061A   25344.46632990  .00000160  00000+0  78926-4 0  9991",
        "tle_line2": "2 32382  98.5796 349.0890 0001125  86.7362 273.3949 14.29981365938980"
      },
      "geometry": {
        "type": "Point",
        "coordinates": [
          173.25224375274917,
          24.399296292872883
        ]
      }
    },
    {
      "type": "Feature",
      "properties": {
        "norad_id": 32783,
        "name": "CARTOSAT-2A",
        "group": "resource",
        "lat": -11.811221600642414,
        "lon": 36.234100157800576,
        "alt_km": 629.2906236431381,
        "timestamp": "2025-12-10T16:57:11.291316+00:00",
        "meta_object_name": "CARTOSAT-2A",
        "meta_object_id": "2008-021A",
        "meta_epoch": "2025-12-10T12:08:07.608768",
        "meta_mean_motion": 14.78931113,
        "meta_eccentricity": 0.0012112,
        "meta_inclination": 97.7928,
        "meta_ra_of_asc_node": 34.3986,
        "meta_arg_of_pericenter": 11.6582,
        "meta_mean_anomaly": 348.4908,
        "meta_ephemeris_type": 0,
        "meta_classification_type": "U",
        "meta_norad_cat_id": 32783,
        "meta_element_set_no": 999,
        "meta_rev_at_epoch": 95091,
        "meta_bstar": 0.00022454,
        "meta_mean_motion_dot": 1.607e-05,
        "meta_mean_motion_ddot": 0,
        "tle_line1": "1 32783U 08021A   25344.50564362  .00001607  00000+0  22454-3 0  9996",
        "tle_line2": "2 32783  97.7928  34.3986 0012112  11.6582 348.4908 14.78931113950918"
      },
      "geometry": {
        "type": "Point",
        "coordinates": [
          36.234100157800576,
          -11.811221600642414
        ]
      }
    },
    {
      "type": "Feature",
      "properties": {
        "norad_id": 33320,
        "name": "HUANJING 1A (HJ-1A)",
        "group": "resource",
        "lat": -1.347200120237334,
        "lon": 152.90843899994735,
        "alt_km": 632.820251465133,
        "timestamp": "2025-12-10T16:57:11.291326+00:00",
        "meta_object_name": "HUANJING 1A (HJ-1A)",
        "meta_object_id": "2008-041A",
        "meta_epoch": "2025-12-10T12:54:07.853760",
        "meta_mean_motion": 14.83382865,
        "meta_eccentricity": 0.0020336,
        "meta_inclination": 97.6544,
        "meta_ra_of_asc_node": 332.9279,
        "meta_arg_of_pericenter": 41.4254,
        "meta_mean_anomaly": 318.8498,
        "meta_ephemeris_type": 0,
        "meta_classification_type": "U",
        "meta_norad_cat_id": 33320,
        "meta_element_set_no": 999,
        "meta_rev_at_epoch": 93043,
        "meta_bstar": 0.00025642,
        "meta_mean_motion_dot": 2.059e-05,
        "meta_mean_motion_ddot": 0,
        "tle_line1": "1 33320U 08041A   25344.53759090  .00002059  00000+0  25642-3 0  9997",
        "tle_line2": "2 33320  97.6544 332.9279 0020336  41.4254 318.8498 14.83382865930435"
      },
      "geometry": {
        "type": "Point",
        "coordinates": [
          152.90843899994735,
          -1.347200120237334
        ]
      }
    },
    {
      "type": "Feature",
      "properties": {
        "norad_id": 33321,
        "name": "HUANJING 1B (HJ-1B)",
        "group": "resource",
        "lat": 45.52474235133056,
        "lon": -31.065900262065032,
        "alt_km": 594.791361888947,
        "timestamp": "2025-12-10T16:57:11.291337+00:00",
        "meta_object_name": "HUANJING 1B (HJ-1B)",
        "meta_object_id": "2008-041B",
        "meta_epoch": "2025-12-10T11:53:18.038688",
        "meta_mean_motion": 14.82812501,
        "meta_eccentricity": 0.0038291,
        "meta_inclination": 97.6401,
        "meta_ra_of_asc_node": 336.5901,
        "meta_arg_of_pericenter": 82.6677,
        "meta_mean_anomaly": 277.8887,
        "meta_ephemeris_type": 0,
        "meta_classification_type": "U",
        "meta_norad_cat_id": 33321,
        "meta_element_set_no": 999,
        "meta_rev_at_epoch": 93044,
        "meta_bstar": 0.00025179,
        "meta_mean_motion_dot": 2.011e-05,
        "meta_mean_motion_ddot": 0,
        "tle_line1": "1 33321U 08041B   25344.49534767  .00002011  00000+0  25179-3 0  9998",
        "tle_line2": "2 33321  97.6401 336.5901 0038291  82.6677 277.8887 14.82812501930446"
      },
      "geometry": {
        "type": "Point",
        "coordinates": [
          -31.065900262065032,
          45.52474235133056
        ]
      }
    },
    {
      "type": "Feature",
      "properties": {
        "norad_id": 33331,
        "name": "GEOEYE 1",
        "group": "resource",
        "lat": 15.627846792473516,
        "lon": -121.69707840835987,
        "alt_km": 679.4666786414045,
        "timestamp": "2025-12-10T16:57:11.291347+00:00",
        "meta_object_name": "GEOEYE 1",
        "meta_object_id": "2008-042A",
        "meta_epoch": "2025-12-10T11:17:16.372896",
        "meta_mean_motion": 14.648079,
        "meta_eccentricity": 0.0002752,
        "meta_inclination": 98.1255,
        "meta_ra_of_asc_node": 55.7794,
        "meta_arg_of_pericenter": 286.6567,
        "meta_mean_anomaly": 73.4334,
        "meta_ephemeris_type": 0,
        "meta_classification_type": "U",
        "meta_norad_cat_id": 33331,
        "meta_element_set_no": 999,
        "meta_rev_at_epoch": 92252,
        "meta_bstar": 0.00019945,
        "meta_mean_motion_dot": 1.016e-05,
        "meta_mean_motion_ddot": 0,
        "tle_line1": "1 33331U 08042A   25344.47032839  .00001016  00000+0  19945-3 0  9999",
        "tle_line2": "2 33331  98.1255  55.7794 0002752 286.6567  73.4334 14.64807900922521"
      },
      "geometry": {
        "type": "Point",
        "coordinates": [
          -121.69707840835987,
          15.627846792473516
        ]
      }
    },
    {
      "type": "Feature",
      "properties": {
        "norad_id": 33396,
        "name": "THEOS",
        "group": "resource",
        "lat": -12.27868666797675,
        "lon": 44.74002127961369,
        "alt_km": 829.623624295803,
        "timestamp": "2025-12-10T16:57:11.291375+00:00",
        "meta_object_name": "THEOS",
        "meta_object_id": "2008-049A",
        "meta_epoch": "2025-12-10T11:56:18.731328",
        "meta_mean_motion": 14.20097268,
        "meta_eccentricity": 0.0001116,
        "meta_inclination": 98.5865,
        "meta_ra_of_asc_node": 42.6528,
        "meta_arg_of_pericenter": 94.8466,
        "meta_mean_anomaly": 265.2839,
        "meta_ephemeris_type": 0,
        "meta_classification_type": "U",
        "meta_norad_cat_id": 33396,
        "meta_element_set_no": 999,
        "meta_rev_at_epoch": 89118,
        "meta_bstar": 0.00026792,
        "meta_mean_motion_dot": 5.28e-06,
        "meta_mean_motion_ddot": 0,
        "tle_line1": "1 33396U 08049A   25344.49743902  .00000528  00000+0  26792-3 0  9994",
        "tle_line2": "2 33396  98.5865  42.6528 0001116  94.8466 265.2839 14.20097268891181"
      },
      "geometry": {
        "type": "Point",
        "coordinates": [
          44.74002127961369,
          -12.27868666797675
        ]
      }
    }
  ]
}